*******************************************************************************
JPL/HORIZONS              678 Fredegundis (A909 BQ)        2023-Sep-04 11:07:42
Rec #:     678 (+COV) Soln.date: 2023-Aug-24_11:59:42   # obs: 6917 (1909-2023)
 
IAU76/J2000 helio. ecliptic osc. elements (au, days, deg., period=Julian yrs):
 
  EPOCH=  2457339.5 ! 2015-Nov-13.00 (TDB)         Residual RMS= .29915
   EC= .2182237994139744   QR= 2.011832372831782   TP= 2457291.4065356464
   OM= 281.4198567910587   W=  120.2131770045078   IN= 6.083068831863168
   A= 2.57341214956876     MA= 11.48222665535018   ADIST= 3.134991926305738
   PER= 4.12831            N= .238748171           ANGMOM= .026930281
   DAN= 2.7532             DDN= 2.20835            L= 41.7739187
   B= 5.2542304            MOID= 1.02813995        TP= 2015-Sep-25.9065356464
 
Asteroid physical parameters (km, seconds, rotational period in hours):
   GM= n.a.                RAD= 19.7925            ROTPER= 11.61624
   H= 9.42                 G= .150                 B-V= n.a.
                           ALBEDO= .344            STYP= X

ASTEROID comments: 
1: soln ref.= JPL#121, OCC=0
2: source=ORB
*******************************************************************************


*******************************************************************************
Ephemeris / API_USER Mon Sep  4 11:07:42 2023 Pasadena, USA      / Horizons
*******************************************************************************
Target body name: 678 Fredegundis (A909 BQ)       {source: JPL#121}
Center body name: Solar System Barycenter (0)     {source: DE441}
Center-site name: BODY CENTER
*******************************************************************************
Start time      : A.D. 2023-Aug-12 00:00:00.0000 TDB
Stop  time      : A.D. 2023-Aug-13 00:00:00.0000 TDB
Step-size       : 2880 minutes
*******************************************************************************
Center geodetic : 0.0, 0.0, 0.0                   {E-lon(deg),Lat(deg),Alt(km)}
Center cylindric: 0.0, 0.0, 0.0                   {E-lon(deg),Dxy(km),Dz(km)}
Center radii    : (undefined)
Small perturbers: Yes                             {source: SB441-N16}
Output units    : KM-S
Calendar mode   : Mixed Julian/Gregorian
Output type     : GEOMETRIC cartesian states
Output format   : 2 (position and velocity)
Reference frame : Ecliptic of J2000.0
*******************************************************************************
Initial IAU76/J2000 heliocentric ecliptic osculating elements (au, days, deg.):
  EPOCH=  2457339.5 ! 2015-Nov-13.00 (TDB)         Residual RMS= .29915        
   EC= .2182237994139744   QR= 2.011832372831782   TP= 2457291.4065356464      
   OM= 281.4198567910587   W=  120.2131770045078   IN= 6.083068831863168       
  Equivalent ICRF heliocentric cartesian coordinates (au, au/d):
   X= 1.011988256321992E+00  Y= 1.552540342146555E+00  Z= 8.286695686062138E-01
  VX=-1.104321687215086E-02 VY= 7.113841261819114E-03 VZ= 1.995254785679844E-03
Asteroid physical parameters (km, seconds, rotational period in hours):        
   GM= n.a.                RAD= 19.7925            ROTPER= 11.61624            
   H= 9.42                 G= .150                 B-V= n.a.                   
                           ALBEDO= .344            STYP= X                     
*******************************************************************************
JDTDB
   X     Y     Z
   VX    VY    VZ
*******************************************************************************
$$SOE
2460168.500000000 = A.D. 2023-Aug-12 00:00:00.0000 TDB 
 X = 3.147897600405101E+08 Y =-5.321600650720906E+07 Z = 3.206524551734919E+07
 VX= 2.680313093225813E-01 VY= 2.187022673324372E+01 VZ= 4.768789567311078E-01
$$EOE
*******************************************************************************
 
TIME

  Barycentric Dynamical Time ("TDB" or T_eph) output was requested. This
continuous coordinate time is equivalent to the relativistic proper time
of a clock at rest in a reference frame co-moving with the solar system
barycenter but outside the system's gravity well. It is the independent
variable in the solar system relativistic equations of motion.

  TDB runs at a uniform rate of one SI second per second and is independent
of irregularities in Earth's rotation.
 
CALENDAR SYSTEM

  Mixed calendar mode was active such that calendar dates after AD 1582-Oct-15
(if any) are in the modern Gregorian system. Dates prior to 1582-Oct-5 (if any)
are in the Julian calendar system, which is automatically extended for dates
prior to its adoption on 45-Jan-1 BC.  The Julian calendar is useful for
matching historical dates. The Gregorian calendar more accurately corresponds
to the Earth's orbital motion and seasons. A "Gregorian-only" calendar mode is
available if such physical events are the primary interest.

REFERENCE FRAME AND COORDINATES

  Ecliptic at the standard reference epoch

    Reference epoch: J2000.0
    X-Y plane: adopted Earth orbital plane at the reference epoch
               Note: IAU76 obliquity of 84381.448 arcseconds wrt ICRF X-Y plane
    X-axis   : ICRF
    Z-axis   : perpendicular to the X-Y plane in the directional (+ or -) sense
               of Earth's north pole at the reference epoch.

  Symbol meaning:

    JDTDB    Julian Day Number, Barycentric Dynamical Time
      X      X-component of position vector (km)
      Y      Y-component of position vector (km)
      Z      Z-component of position vector (km)
      VX     X-component of velocity vector (km/sec)                           
      VY     Y-component of velocity vector (km/sec)                           
      VZ     Z-component of velocity vector (km/sec)                           

ABERRATIONS AND CORRECTIONS

 Geometric state vectors have NO corrections or aberrations applied.

Computations by ...

    Solar System Dynamics Group, Horizons On-Line Ephemeris System
    4800 Oak Grove Drive, Jet Propulsion Laboratory
    Pasadena, CA  91109   USA

    General site: https://ssd.jpl.nasa.gov/
    Mailing list: https://ssd.jpl.nasa.gov/email_list.html
    System news : https://ssd.jpl.nasa.gov/horizons/news.html
    User Guide  : https://ssd.jpl.nasa.gov/horizons/manual.html
    Connect     : browser        https://ssd.jpl.nasa.gov/horizons/app.html#/x
                  API            https://ssd-api.jpl.nasa.gov/doc/horizons.html
                  command-line   telnet ssd.jpl.nasa.gov 6775
                  e-mail/batch   https://ssd.jpl.nasa.gov/ftp/ssd/hrzn_batch.txt
                  scripts        https://ssd.jpl.nasa.gov/ftp/ssd/SCRIPTS
    Author      : Jon.D.Giorgini@jpl.nasa.gov
*******************************************************************************
